{"type": "FeatureCollection", "features": [ {"type": "Feature", "properties": {"norad_id": 34077, "name": "IRIDIUM 33 DEB", "group": "iridium-33-debris", "lat": 4.3122355067755755, "lon": -131.0757915903903, "alt_km": 685.988014516237, "timestamp": "2025-12-17T23:38:07.238525+00:00", "meta": {"OBJECT_NAME": "IRIDIUM 33 DEB", "OBJECT_ID": "1997-051CL", "EPOCH": "2025-12-17T15:21:03.084192", "MEAN_MOTION": 14.64888728, "ECCENTRICITY": 0.00096586, "INCLINATION": 86.3859, "RA_OF_ASC_NODE": 49.3493, "ARG_OF_PERICENTER": 24.1381, "MEAN_ANOMALY": 132.1739, "EPHEMERIS_TYPE": 0, "CLASSIFICATION_TYPE": "U", "NORAD_CAT_ID": 34077, "ELEMENT_SET_NO": 999, "REV_AT_EPOCH": 88404, "BSTAR": 0.0007469396, "MEAN_MOTION_DOT": 4.015e-05, "MEAN_MOTION_DDOT": 0}, "tle": {"line1": "1 34077U 97051CL  25351.63961903  .00004015  00000+0  74694-3 0  9998", "line2": "2 34077  86.3859  49.3493 0009658  24.1381 132.1739 14.64888728884047"}}, "geometry": {"type": "Point", "coordinates": [-131.0757915903903, 4.3122355067755755]}}, {"type": "Feature", "properties": {"norad_id": 34079, "name": "IRIDIUM 33 DEB", "group": "iridium-33-debris", "lat": 19.39276082301215, "lon": -175.00082698008464, "alt_km": 621.5125146421324, "timestamp": "2025-12-17T23:38:07.238535+00:00", "meta": {"OBJECT_NAME": "IRIDIUM 33 DEB", "OBJECT_ID": "1997-051CN", "EPOCH": "2025-12-17T15:26:44.871360", "MEAN_MOTION": 14.83653383, "ECCENTRICITY": 0.00049684, "INCLINATION": 86.3772, "RA_OF_ASC_NODE": 6.4323, "ARG_OF_PERICENTER": 351.2677, "MEAN_ANOMALY": 147.8117, "EPHEMERIS_TYPE": 0, "CLASSIFICATION_TYPE": "U", "NORAD_CAT_ID": 34079, "ELEMENT_SET_NO": 999, "REV_AT_EPOCH": 89050, "BSTAR": 0.0012246338, "MEAN_MOTION_DOT": 0.00010139, "MEAN_MOTION_DDOT": 0}, "tle": {"line1": "1 34079U 97051CN  25351.64357490  .00010139  00000+0  12246-2 0  9999", "line2": "2 34079  86.3772   6.4323 0004968 351.2677 147.8117 14.83653383890509"}}, "geometry": {"type": "Point", "coordinates": [-175.00082698008464, 19.39276082301215]}}, {"type": "Feature", "properties": {"norad_id": 34088, "name": "IRIDIUM 33 DEB", "group": "iridium-33-debris", "lat": 40.73990438563064, "lon": 31.435983843690416, "alt_km": 591.8449447068779, "timestamp": "2025-12-17T23:38:07.238545+00:00", "meta": {"OBJECT_NAME": "IRIDIUM 33 DEB", "OBJECT_ID": "1997-051CX", "EPOCH": "2025-12-17T14:19:35.325696", "MEAN_MOTION": 14.91604153, "ECCENTRICITY": 0.00061939, "INCLINATION": 86.3846, "RA_OF_ASC_NODE": 28.4923, "ARG_OF_PERICENTER": 160.6797, "MEAN_ANOMALY": 318.9134, "EPHEMERIS_TYPE": 0, "CLASSIFICATION_TYPE": "U", "NORAD_CAT_ID": 34088, "ELEMENT_SET_NO": 999, "REV_AT_EPOCH": 88814, "BSTAR": 0.0018284036, "MEAN_MOTION_DOT": 0.00018404, "MEAN_MOTION_DDOT": 0}, "tle": {"line1": "1 34088U 97051CX  25351.59693664  .00018404  00000+0  18284-2 0  9990", "line2": "2 34088  86.3846  28.4923 0006193 160.6797 318.9134 14.91604153888145"}}, "geometry": {"type": "Point", "coordinates": [31.435983843690416, 40.73990438563064]}}, {"type": "Feature", "properties": {"norad_id": 34091, "name": "IRIDIUM 33 DEB", "group": "iridium-33-debris", "lat": 47.86110727418227, "lon": 68.48547242646933, "alt_km": 634.4955984556045, "timestamp": "2025-12-17T23:38:07.238555+00:00", "meta": {"OBJECT_NAME": "IRIDIUM 33 DEB", "OBJECT_ID": "1997-051DA", "EPOCH": "2025-12-17T15:19:03.336384", "MEAN_MOTION": 14.82177914, "ECCENTRICITY": 0.00335984, "INCLINATION": 86.3425, "RA_OF_ASC_NODE": 64.5903, "ARG_OF_PERICENTER": 275.4522, "MEAN_ANOMALY": 84.2868, "EPHEMERIS_TYPE": 0, "CLASSIFICATION_TYPE": "U", "NORAD_CAT_ID": 34091, "ELEMENT_SET_NO": 999, "REV_AT_EPOCH": 87939, "BSTAR": 0.0032441894, "MEAN_MOTION_DOT": 0.00026188, "MEAN_MOTION_DDOT": 0}, "tle": {"line1": "1 34091U 97051DA  25351.63823306  .00026188  00000+0  32442-2 0  9997", "line2": "2 34091  86.3425  64.5903 0033598 275.4522  84.2868 14.82177914879395"}}, "geometry": {"type": "Point", "coordinates": [68.48547242646933, 47.86110727418227]}}, {"type": "Feature", "properties": {"norad_id": 34097, "name": "IRIDIUM 33 DEB", "group": "iridium-33-debris", "lat": 53.69780453376507, "lon": 173.90299584983683, "alt_km": 816.1587801354935, "timestamp": "2025-12-17T23:38:07.238566+00:00", "meta": {"OBJECT_NAME": "IRIDIUM 33 DEB", "OBJECT_ID": "1997-051DG", "EPOCH": "2025-12-17T11:20:07.236672", "MEAN_MOTION": 14.34815028, "ECCENTRICITY": 0.00821238, "INCLINATION": 86.2003, "RA_OF_ASC_NODE": 359.3194, "ARG_OF_PERICENTER": 346.7469, "MEAN_ANOMALY": 13.1567, "EPHEMERIS_TYPE": 0, "CLASSIFICATION_TYPE": "U", "NORAD_CAT_ID": 34097, "ELEMENT_SET_NO": 999, "REV_AT_EPOCH": 87187, "BSTAR": 0.0011502417, "MEAN_MOTION_DOT": 3.407e-05, "MEAN_MOTION_DDOT": 0}, "tle": {"line1": "1 34097U 97051DG  25351.47230598  .00003407  00000+0  11502-2 0  9993", "line2": "2 34097  86.2003 359.3194 0082123 346.7469  13.1567 14.34815028871873"}}, "geometry": {"type": "Point", "coordinates": [173.90299584983683, 53.69780453376507]}}, {"type": "Feature", "properties": {"norad_id": 34145, "name": "IRIDIUM 33 DEB", "group": "iridium-33-debris", "lat": 2.9221220158782875, "lon": 149.99677024302883, "alt_km": 760.0736489034716, "timestamp": "2025-12-17T23:38:07.238576+00:00", "meta": {"OBJECT_NAME": "IRIDIUM 33 DEB", "OBJECT_ID": "1997-051DY", "EPOCH": "2025-12-17T09:30:10.692576", "MEAN_MOTION": 14.42321969, "ECCENTRICITY": 0.00557549, "INCLINATION": 86.2111, "RA_OF_ASC_NODE": 330.4528, "ARG_OF_PERICENTER": 79.0556, "MEAN_ANOMALY": 281.691, "EPHEMERIS_TYPE": 0, "CLASSIFICATION_TYPE": "U", "NORAD_CAT_ID": 34145, "ELEMENT_SET_NO": 999, "REV_AT_EPOCH": 87705, "BSTAR": 0.00088673029, "MEAN_MOTION_DOT": 3.002e-05, "MEAN_MOTION_DDOT": 0}, "tle": {"line1": "1 34145U 97051DY  25351.39595709  .00003002  00000+0  88673-3 0  9991", "line2": "2 34145  86.2111 330.4528 0055754  79.0556 281.6910 14.42321969877056"}}, "geometry": {"type": "Point", "coordinates": [149.99677024302883, 2.9221220158782875]}}, {"type": "Feature", "properties": {"norad_id": 34146, "name": "IRIDIUM 33 DEB", "group": "iridium-33-debris", "lat": -58.17087061235046, "lon": -18.527631162366223, "alt_km": 738.4637965754728, "timestamp": "2025-12-17T23:38:07.238587+00:00", "meta": {"OBJECT_NAME": "IRIDIUM 33 DEB", "OBJECT_ID": "1997-051DZ", "EPOCH": "2025-12-17T11:21:07.085952", "MEAN_MOTION": 14.49080769, "ECCENTRICITY": 0.0025896, "INCLINATION": 86.2831, "RA_OF_ASC_NODE": 347.7097, "ARG_OF_PERICENTER": 205.0679, "MEAN_ANOMALY": 308.1065, "EPHEMERIS_TYPE": 0, "CLASSIFICATION_TYPE": "U", "NORAD_CAT_ID": 34146, "ELEMENT_SET_NO": 999, "REV_AT_EPOCH": 88175, "BSTAR": 0.00069792475, "MEAN_MOTION_DOT": 2.681e-05, "MEAN_MOTION_DDOT": 0}, "tle": {"line1": "1 34146U 97051DZ  25351.47299868  .00002681  00000+0  69792-3 0  9991", "line2": "2 34146  86.2831 347.7097 0025896 205.0679 308.1065 14.49080769881754"}}, "geometry": {"type": "Point", "coordinates": [-18.527631162366223, -58.17087061235046]}}, {"type": "Feature", "properties": {"norad_id": 34159, "name": "IRIDIUM 33 DEB", "group": "iridium-33-debris", "lat": 3.172736314078718, "lon": -134.19769773545738, "alt_km": 766.8648079599325, "timestamp": "2025-12-17T23:38:07.238598+00:00", "meta": {"OBJECT_NAME": "IRIDIUM 33 DEB", "OBJECT_ID": "1997-051EN", "EPOCH": "2025-12-17T14:27:59.153472", "MEAN_MOTION": 14.38505774, "ECCENTRICITY": 0.00259211, "INCLINATION": 86.3501, "RA_OF_ASC_NODE": 46.1679, "ARG_OF_PERICENTER": 270.5644, "MEAN_ANOMALY": 89.2584, "EPHEMERIS_TYPE": 0, "CLASSIFICATION_TYPE": "U", "NORAD_CAT_ID": 34159, "ELEMENT_SET_NO": 999, "REV_AT_EPOCH": 88029, "BSTAR": 0.00031875512, "MEAN_MOTION_DOT": 9.96e-06, "MEAN_MOTION_DDOT": 0}, "tle": {"line1": "1 34159U 97051EN  25351.60276798  .00000996  00000+0  31876-3 0  9996", "line2": "2 34159  86.3501  46.1679 0025921 270.5644  89.2584 14.38505774880294"}}, "geometry": {"type": "Point", "coordinates": [-134.19769773545738, 3.172736314078718]}}, {"type": "Feature", "properties": {"norad_id": 34350, "name": "IRIDIUM 33 DEB", "group": "iridium-33-debris", "lat": -24.485000312564406, "lon": -1.1451507074840013, "alt_km": 759.5801911845492, "timestamp": "2025-12-17T23:38:07.238608+00:00", "meta": {"OBJECT_NAME": "IRIDIUM 33 DEB", "OBJECT_ID": "1997-051ES", "EPOCH": "2025-12-17T12:40:13.196928", "MEAN_MOTION": 14.45397938, "ECCENTRICITY": 0.00231831, "INCLINATION": 86.3272, "RA_OF_ASC_NODE": 0.7293, "ARG_OF_PERICENTER": 120.4242, "MEAN_ANOMALY": 359.5053, "EPHEMERIS_TYPE": 0, "CLASSIFICATION_TYPE": "U", "NORAD_CAT_ID": 34350, "ELEMENT_SET_NO": 999, "REV_AT_EPOCH": 88362, "BSTAR": 0.00027248042, "MEAN_MOTION_DOT": 9.81e-06, "MEAN_MOTION_DDOT": 0}, "tle": {"line1": "1 34350U 97051ES  25351.52793052  .00000981  00000+0  27248-3 0  9999", "line2": "2 34350  86.3272   0.7293 0023183 120.4242 359.5053 14.45397938883628"}}, "geometry": {"type": "Point", "coordinates": [-1.1451507074840013, -24.485000312564406]}}, {"type": "Feature", "properties": {"norad_id": 34366, "name": "IRIDIUM 33 DEB", "group": "iridium-33-debris", "lat": 72.17304903914983, "lon": -144.3532108685663, "alt_km": 689.8405643449487, "timestamp": "2025-12-17T23:38:07.238619+00:00", "meta": {"OBJECT_NAME": "IRIDIUM 33 DEB", "OBJECT_ID": "1997-051FJ", "EPOCH": "2025-12-17T15:27:08.430048", "MEAN_MOTION": 14.54097613, "ECCENTRICITY": 0.00228439, "INCLINATION": 86.3698, "RA_OF_ASC_NODE": 47.1809, "ARG_OF_PERICENTER": 124.3183, "MEAN_ANOMALY": 359.4993, "EPHEMERIS_TYPE": 0, "CLASSIFICATION_TYPE": "U", "NORAD_CAT_ID": 34366, "ELEMENT_SET_NO": 999, "REV_AT_EPOCH": 88253, "BSTAR": 0.00072705325, "MEAN_MOTION_DOT": 3.101e-05, "MEAN_MOTION_DDOT": 0}, "tle": {"line1": "1 34366U 97051FJ  25351.64384757  .00003101  00000+0  72705-3 0  9992", "line2": "2 34366  86.3698  47.1809 0022843 124.3183 359.4993 14.54097613882532"}}, "geometry": {"type": "Point", "coordinates": [-144.3532108685663, 72.17304903914983]}}]}